NORAD_CAT_ID,OBJECT_NAME,OBJECT_TYPE,EPOCH,MEAN_MOTION,ECCENTRICITY,INCLINATION,RA_OF_ASC_NODE,ARG_OF_PERICENTER,MEAN_ANOMALY,BSTAR,MEAN_MOTION_DOT,MEAN_MOTION_DDOT,TLE_LINE0,TLE_LINE1,TLE_LINE2,SEMIMAJOR_AXIS,PERIOD,APOGEE,PERIGEE,DECAYED
55775.0,STARLINK-5809,PAYLOAD,2024-02-02 03:27:10,14.98339909,0.0002598,70.0021,357.1262,250.6057,109.4821,-8.4249e-05,-1.098e-05,0.0,0 STARLINK-5809,1 55775U 23028AL  24033.14387603 -.00001098  00000-0 -84249-4 0  9999,2 55775  70.0021 357.1262 0002598 250.6057 109.4821 14.98339909 51710,6950.162,96.106,573.833,570.222,0.0
55775.0,STARLINK-5809,PAYLOAD,2024-02-02 06:39:27,14.98337717,0.0002626,70.002,356.7894,252.0791,108.0082,-0.00010766,-1.377e-05,0.0,0 STARLINK-5809,1 55775U 23028AL  24033.27739735 -.00001377  00000-0 -10766-3 0  9992,2 55775  70.0020 356.7894 0002626 252.0791 108.0082 14.98337717 51739,6950.169,96.107,573.859,570.209,0.0
55775.0,STARLINK-5809,PAYLOAD,2024-02-02 22:40:47,14.98329676,0.0002543,70.0021,355.1051,260.9456,99.1415,-1.9685e-05,-3.28e-06,0.0,0 STARLINK-5809,1 55775U 23028AL  24033.94499646 -.00000328  00000-0 -19685-4 0  9995,2 55775  70.0021 355.1051 0002543 260.9456  99.1415 14.98329676 51838,6950.194,96.107,573.826,570.291,0.0
55775.0,STARLINK-5809,PAYLOAD,2024-02-03 03:29:11,14.98331853,0.0002631,70.0017,354.601,257.4386,102.6479,-9.3978e-05,-1.214e-05,0.0,0 STARLINK-5809,1 55775U 23028AL  24034.14527702 -.00001214  00000-0 -93978-4 0  9995,2 55775  70.0017 354.6010 0002631 257.4386 102.6479 14.98331853 51866,6950.187,96.107,573.881,570.224,0.0
55775.0,STARLINK-5809,PAYLOAD,2024-02-03 06:41:27,14.98334688,0.0002709,70.0008,354.2624,264.15,95.935,-0.00011162,-1.425e-05,0.0,0 STARLINK-5809,1 55775U 23028AL  24034.27879591 -.00001425  00000-0 -11162-3 0  9993,2 55775  70.0008 354.2624 0002709 264.1500  95.9350 14.98334688 51885,6950.178,96.107,573.926,570.161,0.0
55775.0,STARLINK-5809,PAYLOAD,2024-02-03 22:42:48,14.98331179,0.0002969,70.0007,352.5791,271.2548,88.8271,1.1876e-05,4.9e-07,0.0,0 STARLINK-5809,1 55775U 23028AL  24034.94639308  .00000049  00000-0  11876-4 0  9999,2 55775  70.0007 352.5791 0002969 271.2548  88.8271 14.98331179 51985,6950.189,96.107,574.118,569.991,0.0
55775.0,STARLINK-5809,PAYLOAD,2024-02-04 03:31:12,14.98334596,0.0002931,70.0008,352.0743,268.3927,91.6897,4.9036e-05,4.92e-06,0.0,0 STARLINK-5809,1 55775U 23028AL  24035.14666937  .00000492  00000-0  49036-4 0  9991,2 55775  70.0008 352.0743 0002931 268.3927  91.6897 14.98334596 52012,6950.179,96.107,574.081,570.007,0.0
55775.0,STARLINK-5809,PAYLOAD,2024-02-04 06:43:28,14.98336725,0.0002873,70.0009,351.7376,268.6602,91.4228,7.2696e-05,7.75e-06,0.0,0 STARLINK-5809,1 55775U 23028AL  24035.28018705  .00000775  00000-0  72696-4 0  9992,2 55775  70.0009 351.7376 0002873 268.6602  91.4228 14.98336725 52033,6950.172,96.107,574.034,570.04,0.0
55775.0,STARLINK-5809,PAYLOAD,2024-02-04 22:44:49,14.98329252,0.0002827,70.001,350.0545,268.7602,91.3233,2.4879e-05,2.04e-06,0.0,0 STARLINK-5809,1 55775U 23028AL  24035.94779175  .00000204  00000-0  24879-4 0  9997,2 55775  70.0010 350.0545 0002827 268.7602  91.3233 14.98329252 52138,6950.195,96.107,574.025,570.095,0.0
55775.0,STARLINK-5809,PAYLOAD,2024-02-05 03:33:13,14.98329557,0.0002827,70.001,349.5496,268.7574,91.3261,2.6464e-05,2.23e-06,0.0,0 STARLINK-5809,1 55775U 23028AL  24036.14807147  .00000223  00000-0  26464-4 0  9994,2 55775  70.0010 349.5496 0002827 268.7574  91.3261 14.98329557 52166,6950.194,96.107,574.024,570.094,0.0
55775.0,STARLINK-5809,PAYLOAD,2024-02-05 06:45:29,14.98332066,0.0002805,70.0011,349.2133,268.7402,91.3435,5.3624e-05,5.47e-06,0.0,0 STARLINK-5809,1 55775U 23028AL  24036.28158898  .00000547  00000-0  53624-4 0  9998,2 55775  70.0011 349.2133 0002805 268.7402  91.3435 14.98332066 52182,6950.187,96.107,574.001,570.102,0.0
55775.0,STARLINK-5809,PAYLOAD,2024-02-05 22:46:50,14.98333461,0.0002734,70.0014,347.5294,268.1759,91.9087,-5.2679e-05,-7.21e-06,0.0,0 STARLINK-5809,1 55775U 23028AL  24036.94919013 -.00000721  00000-0 -52679-4 0  9990,2 55775  70.0014 347.5294 0002734 268.1759  91.9087 14.98333461 52284,6950.182,96.107,573.947,570.147,0.0
55775.0,STARLINK-5809,PAYLOAD,2024-02-06 03:35:14,14.98334663,0.0002709,70.0015,347.0243,268.0042,92.0807,-3.35e-05,-4.93e-06,0.0,0 STARLINK-5809,1 55775U 23028AL  24037.14946828 -.00000493  00000-0 -33500-4 0  9995,2 55775  70.0015 347.0243 0002709 268.0042  92.0807 14.98334663 52311,6950.178,96.107,573.926,570.161,0.0
55775.0,STARLINK-5809,PAYLOAD,2024-02-06 06:47:29,14.98336998,0.0002626,70.0019,346.6889,267.2952,92.7906,1.1624e-06,-7.9e-07,0.0,0 STARLINK-5809,1 55775U 23028AL  24037.28298540 -.00000079  00000-0  11624-5 0  9994,2 55775  70.0019 346.6889 0002626 267.2952  92.7906 14.98336998 52337,6950.171,96.107,573.861,570.211,0.0
55775.0,STARLINK-5809,PAYLOAD,2024-02-06 22:48:51,14.98284333,0.0002628,70.0023,345.0045,277.4914,82.5946,0.00072345,8.539e-05,0.0,0 STARLINK-5809,1 55775U 23028AL  24037.95059377  .00008539  00000-0  72345-3 0  9994,2 55775  70.0023 345.0045 0002628 277.4914  82.5946 14.98284333 52439,6950.334,96.11,574.026,570.373,0.0
55775.0,STARLINK-5809,PAYLOAD,2024-02-07 03:37:14,14.98330922,0.000251,70.002,344.5008,258.5365,101.5512,8.685e-06,1.1e-07,0.0,0 STARLINK-5809,1 55775U 23028AL  24038.15086699  .00000011  00000-0  86850-5 0  9999,2 55775  70.0020 344.5008 0002510 258.5365 101.5512 14.98330922 52469,6950.19,96.107,573.8,570.311,0.0
55775.0,STARLINK-5809,PAYLOAD,2024-02-07 13:14:03,14.98330678,0.0002359,70.0025,343.4911,272.4542,87.6347,-2.606e-05,-4.04e-06,0.0,0 STARLINK-5809,1 55775U 23028AL  24038.55142857 -.00000404  00000-0 -26060-4 0  9996,2 55775  70.0025 343.4911 0002359 272.4542  87.6347 14.98330678 52523,6950.191,96.107,573.695,570.416,0.0
55775.0,STARLINK-5809,PAYLOAD,2024-02-07 21:14:43,14.98305632,0.00024,70.0025,342.6498,256.9488,103.1403,0.00036572,4.271e-05,0.0,0 STARLINK-5809,1 55775U 23028AL  24038.88522990  .00004271  00000-0  36572-3 0  9994,2 55775  70.0025 342.6498 0002400 256.9488 103.1403 14.98305632 52571,6950.268,96.109,573.801,570.465,0.0
55775.0,STARLINK-5809,PAYLOAD,2024-02-08 00:27:00,14.98326234,0.0002551,70.0018,342.3134,258.134,101.9533,-6.5571e-05,-8.75e-06,0.0,0 STARLINK-5809,1 55775U 23028AL  24039.01875156 -.00000875  00000-0 -65571-4 0  9995,2 55775  70.0018 342.3134 0002551 258.1340 101.9533 14.98326234 52598,6950.205,96.107,573.843,570.297,0.0
55775.0,STARLINK-5809,PAYLOAD,2024-02-08 06:51:32,14.98326377,0.0002628,70.0017,341.6402,259.5806,100.5057,-3.8537e-05,-5.53e-06,0.0,0 STARLINK-5809,1 55775U 23028AL  24039.28579142 -.00000553  00000-0 -38537-4 0  9995,2 55775  70.0017 341.6402 0002628 259.5806 100.5057 14.98326377 52633,6950.204,96.107,573.896,570.243,0.0
55775.0,STARLINK-5809,PAYLOAD,2024-02-08 22:52:53,14.98326838,0.0002704,70.0014,339.9565,258.1258,101.9598,-4.1254e-05,-5.85e-06,0.0,0 STARLINK-5809,1 55775U 23028AL  24039.95339165 -.00000585  00000-0 -41254-4 0  9993,2 55775  70.0014 339.9565 0002704 258.1258 101.9598 14.98326838 52739,6950.203,96.107,573.947,570.188,0.0
55775.0,STARLINK-5809,PAYLOAD,2024-02-09 03:41:17,14.98328634,0.0002664,70.0015,339.4512,258.6559,101.4301,1.5707e-05,9.4e-07,0.0,0 STARLINK-5809,1 55775U 23028AL  24040.15366925  .00000094  00000-0  15707-4 0  9998,2 55775  70.0015 339.4512 0002664 258.6559 101.4301 14.98328634 52767,6950.197,96.107,573.914,570.211,0.0
55775.0,STARLINK-5809,PAYLOAD,2024-02-09 05:17:25,14.98323803,0.0003007,70.0012,339.2806,271.1871,88.8943,0.00015261,1.728e-05,0.0,0 STARLINK-5809,1 55775U 23028AL  24040.22042895  .00001728  00000-0  15261-3 0  9992,2 55775  70.0012 339.2806 0003007 271.1871  88.8943 14.98323803 52771,6950.212,96.107,574.167,569.987,0.0
55775.0,STARLINK-5809,PAYLOAD,2024-02-09 19:42:38,14.98318795,0.0002891,70.0014,337.7659,270.8935,89.1893,4.6383e-05,4.6e-06,0.0,0 STARLINK-5809,1 55775U 23028AL  24040.82127464  .00000460  00000-0  46383-4 0  9996,2 55775  70.0014 337.7659 0002891 270.8935  89.1893 14.98318795 52861,6950.228,96.108,574.102,570.083,0.0
55775.0,STARLINK-5809,PAYLOAD,2024-02-10 03:43:17,14.98330308,0.0002672,70.0014,336.9265,251.0851,109.0018,7.7259e-05,8.29e-06,0.0,0 STARLINK-5809,1 55775U 23028AL  24041.15506778  .00000829  00000-0  77259-4 0  9997,2 55775  70.0014 336.9265 0002672 251.0851 109.0018 14.98330308 52911,6950.192,96.107,573.914,570.2,0.0
55775.0,STARLINK-5809,PAYLOAD,2024-02-10 05:19:24,14.98347756,0.0002591,70.0017,336.7585,261.5413,98.5452,0.00028755,3.341e-05,0.0,0 STARLINK-5809,1 55775U 23028AL  24041.22181272  .00003341  00000-0  28755-3 0  9991,2 55775  70.0017 336.7585 0002591 261.5413  98.5452 14.98347756 52927,6950.138,96.106,573.804,570.202,0.0
55775.0,STARLINK-5809,PAYLOAD,2024-02-10 19:44:38,14.98333722,0.0001905,70.0042,335.2477,245.1105,114.9856,0.00010475,1.157e-05,0.0,0 STARLINK-5809,1 55775U 23028AL  24041.82266545  .00001157  00000-0  10475-3 0  9997,2 55775  70.0042 335.2477 0001905 245.1105 114.9856 14.98333722 53013,6950.181,96.107,573.37,570.722,0.0
55775.0,STARLINK-5809,PAYLOAD,2024-02-10 22:56:54,14.98333589,0.000308,69.9998,334.9059,267.8104,92.2702,-5.2465e-05,-7.19e-06,0.0,0 STARLINK-5809,1 55775U 23028AL  24041.95618803 -.00000719  00000-0 -52465-4 0  9990,2 55775  69.9998 334.9059 0003080 267.8104  92.2702 14.98333589 53039,6950.182,96.107,574.187,569.906,0.0
55775.0,STARLINK-5809,PAYLOAD,2024-02-11 03:45:18,14.98331858,0.0003158,69.9998,334.401,269.2295,90.8502,-6.4506e-05,-8.63e-06,0.0,0 STARLINK-5809,1 55775U 23028AL  24042.15646920 -.00000863  00000-0 -64506-4 0  9993,2 55775  69.9998 334.4010 0003158 269.2295  90.8502 14.98331858 53066,6950.187,96.107,574.247,569.857,0.0
55775.0,STARLINK-5809,PAYLOAD,2024-02-11 05:21:26,14.9833351,0.0003186,69.9998,334.2327,270.4896,89.5898,-4.4106e-05,-6.19e-06,0.0,0 STARLINK-5809,1 55775U 23028AL  24042.22322755 -.00000619  00000-0 -44106-4 0  9991,2 55775  69.9998 334.2327 0003186 270.4896  89.5898 14.98333510 53078,6950.182,96.107,574.261,569.833,0.0
